NORAD_CAT_ID,OBJECT_NAME,OBJECT_TYPE,EPOCH,MEAN_MOTION,ECCENTRICITY,INCLINATION,RA_OF_ASC_NODE,ARG_OF_PERICENTER,MEAN_ANOMALY,BSTAR,MEAN_MOTION_DOT,MEAN_MOTION_DDOT,TLE_LINE0,TLE_LINE1,TLE_LINE2,SEMIMAJOR_AXIS,PERIOD,APOGEE,PERIGEE,DECAYED
53547.0,STARLINK-4474,PAYLOAD,2024-03-23 02:34:10,15.08821543,0.0001683,53.2187,40.9803,120.7519,239.3639,-5.5667e-05,-1.173e-05,0.0,0 STARLINK-4474,1 53547U 22101W   24083.10706331 -.00001173  00000-0 -55667-4 0  9995,2 53547  53.2187  40.9803 0001683 120.7519 239.3639 15.08821543 88120,6917.937,95.439,540.966,538.638,0.0
53547.0,STARLINK-4474,PAYLOAD,2024-03-23 20:03:24,15.08835075,0.0001167,53.2186,37.7136,108.2359,251.876,7.9229e-05,9.73e-06,0.0,0 STARLINK-4474,1 53547U 22101W   24083.83570125  .00000973  00000-0  79229-4 0  9990,2 53547  53.2186  37.7136 0001167 108.2359 251.8760 15.08835075 88233,6917.895,95.438,540.568,538.953,0.0
53547.0,STARLINK-4474,PAYLOAD,2024-03-24 04:00:18,15.08861557,0.0001178,53.2178,36.2248,87.2247,272.888,0.00018338,2.634e-05,0.0,0 STARLINK-4474,1 53547U 22101W   24084.16687864  .00002634  00000-0  18338-3 0  9995,2 53547  53.2178  36.2248 0001178  87.2247 272.8880 15.08861557 88281,6917.814,95.436,540.494,538.865,0.0
53547.0,STARLINK-4474,PAYLOAD,2024-03-24 19:54:10,15.08849262,0.0001596,53.2183,33.2579,110.3951,249.7213,0.00049222,7.556e-05,0.0,0 STARLINK-4474,1 53547U 22101W   24084.82929073  .00007556  00000-0  49222-3 0  9993,2 53547  53.2183  33.2579 0001596 110.3951 249.7213 15.08849262 88388,6917.852,95.437,540.821,538.613,0.0
53547.0,STARLINK-4474,PAYLOAD,2024-03-25 03:51:07,15.08830953,0.0001529,53.2175,31.7614,98.3413,261.7753,0.00011063,1.473e-05,0.0,0 STARLINK-4474,1 53547U 22101W   24085.16049992  .00001473  00000-0  11063-3 0  9998,2 53547  53.2175  31.7614 0001529  98.3413 261.7753 15.08830953 88432,6917.908,95.438,540.831,538.715,0.0
53547.0,STARLINK-4474,PAYLOAD,2024-03-25 13:23:25,15.08835914,0.0001577,53.2176,29.979,90.2816,269.8357,0.00010038,1.31e-05,0.0,0 STARLINK-4474,1 53547U 22101W   24085.55793920  .00001310  00000-0  10038-3 0  9999,2 53547  53.2176  29.9790 0001577  90.2816 269.8357 15.08835914 89160,6917.893,95.438,540.849,538.667,0.0
53547.0,STARLINK-4474,PAYLOAD,2024-03-26 03:41:56,15.0882517,0.0001705,53.219,27.3032,101.1614,258.957,-0.00019563,-3.399e-05,0.0,0 STARLINK-4474,1 53547U 22101W   24086.15412294 -.00003399  00000-0 -19563-3 0  9991,2 53547  53.2190  27.3032 0001705 101.1614 258.9570 15.08825170 88582,6917.926,95.438,540.97,538.611,0.0
53547.0,STARLINK-4474,PAYLOAD,2024-03-26 13:14:14,15.08837361,0.0001506,53.2178,25.5218,102.4845,257.6316,-0.00012666,-2.303e-05,0.0,0 STARLINK-4474,1 53547U 22101W   24086.55155552 -.00002303  00000-0 -12666-3 0  9997,2 53547  53.2178  25.5218 0001506 102.4845 257.6316 15.08837361 88649,6917.888,95.438,540.795,538.712,0.0
53547.0,STARLINK-4474,PAYLOAD,2024-03-27 01:57:18,15.08840549,0.0001531,53.2183,23.1403,101.906,258.2104,0.00021569,3.146e-05,0.0,0 STARLINK-4474,1 53547U 22101W   24087.08146742  .00003146  00000-0  21569-3 0  9993,2 53547  53.2183  23.1403 0001531 101.9060 258.2104 15.08840549 88729,6917.879,95.438,540.803,538.685,0.0
53547.0,STARLINK-4474,PAYLOAD,2024-03-27 13:04:58,15.0886244,0.0001682,53.2186,21.0585,98.2646,261.8537,0.00033504,5.051e-05,0.0,0 STARLINK-4474,1 53547U 22101W   24087.54512686  .00005051  00000-0  33504-3 0  9997,2 53547  53.2186  21.0585 0001682  98.2646 261.8537 15.08862440 88796,6917.812,95.436,540.84,538.513,0.0
53547.0,STARLINK-4474,PAYLOAD,2024-03-27 19:26:33,15.08844738,0.0003062,53.2197,19.8706,89.7942,270.3401,0.00018728,2.694e-05,0.0,0 STARLINK-4474,1 53547U 22101W   24087.81010592  .00002694  00000-0  18728-3 0  9997,2 53547  53.2197  19.8706 0003062  89.7942 270.3401 15.08844738 88836,6917.866,95.437,541.849,537.613,0.0
53547.0,STARLINK-4474,PAYLOAD,2024-03-28 04:58:50,15.08857852,0.0001783,53.2201,18.0863,110.2539,249.8645,0.00043886,6.707e-05,0.0,0 STARLINK-4474,1 53547U 22101W   24088.20753065  .00006707  00000-0  43886-3 0  9992,2 53547  53.2201  18.0863 0001783 110.2539 249.8645 15.08857852 88895,6917.826,95.436,540.924,538.457,0.0
53547.0,STARLINK-4474,PAYLOAD,2024-03-28 12:55:46,15.08852622,0.0001813,53.219,16.5964,105.8113,254.3079,0.00031914,4.796e-05,0.0,0 STARLINK-4474,1 53547U 22101W   24088.53873410  .00004796  00000-0  31914-3 0  9990,2 53547  53.2190  16.5964 0001813 105.8113 254.3079 15.08852622 88947,6917.842,95.437,540.961,538.453,0.0
53547.0,STARLINK-4474,PAYLOAD,2024-03-28 22:28:07,15.08838672,0.0001785,53.2187,14.8143,107.8046,252.3141,-0.00011571,-2.129e-05,0.0,0 STARLINK-4474,1 53547U 22101W   24088.93619220 -.00002129  00000-0 -11571-3 0  9998,2 53547  53.2187  14.8143 0001785 107.8046 252.3141 15.08838672 89676,6917.884,95.438,540.984,538.515,0.0
53547.0,STARLINK-4474,PAYLOAD,2024-03-29 04:49:39,15.08845387,0.0001743,53.2199,13.6259,106.1008,254.0176,-0.00020639,-3.572e-05,0.0,0 STARLINK-4474,1 53547U 22101W   24089.20114988 -.00003572  00000-0 -20639-3 0  9998,2 53547  53.2199  13.6259 0001743 106.1008 254.0176 15.08845387 89047,6917.864,95.437,540.935,538.523,0.0
53547.0,STARLINK-4474,PAYLOAD,2024-03-29 22:18:55,15.08814538,0.0001444,53.2192,10.3523,109.9025,250.2122,-2.9609e-05,-7.59e-06,0.0,0 STARLINK-4474,1 53547U 22101W   24089.92980773 -.00000759  00000-0 -29609-4 0  9991,2 53547  53.2192  10.3523 0001444 109.9025 250.2122 15.08814538 89825,6917.958,95.439,540.822,538.824,0.0
53547.0,STARLINK-4474,PAYLOAD,2024-03-30 04:40:26,15.0883609,0.0001144,53.2191,9.1653,92.9465,267.1658,-2.3874e-05,-6.68e-06,0.0,0 STARLINK-4474,1 53547U 22101W   24090.19475677 -.00000668  00000-0 -23874-4 0  9991,2 53547  53.2191   9.1653 0001144  92.9465 267.1658 15.08836090 89198,6917.892,95.438,540.549,538.966,0.0
53547.0,STARLINK-4474,PAYLOAD,2024-03-30 11:01:58,15.08850946,0.0001125,53.22,7.9788,90.7943,269.3178,-5.9725e-05,-1.239e-05,0.0,0 STARLINK-4474,1 53547U 22101W   24090.45970635 -.00001239  00000-0 -59725-4 0  9993,2 53547  53.2200   7.9788 0001125  90.7943 269.3178 15.08850946 89232,6917.847,95.437,540.49,538.934,0.0
53547.0,STARLINK-4474,PAYLOAD,2024-03-30 22:09:37,15.08874742,0.0001061,53.2198,5.8953,85.5555,274.5559,0.00052691,8.116e-05,0.0,0 STARLINK-4474,1 53547U 22101W   24090.92334908  .00008116  00000-0  52691-3 0  9995,2 53547  53.2198   5.8953 0001061  85.5555 274.5559 15.08874742 89971,6917.774,95.435,540.373,538.905,0.0
53547.0,STARLINK-4474,PAYLOAD,2024-03-31 01:20:27,15.08815607,0.000141,53.2196,5.3008,87.0288,273.0866,5.9137e-06,-1.94e-06,0.0,0 STARLINK-4474,1 53547U 22101W   24091.05587840 -.00000194  00000-0  59137-5 0  9998,2 53547  53.2196   5.3008 0001410  87.0288 273.0866 15.08815607 89322,6917.955,95.439,540.795,538.845,0.0
53547.0,STARLINK-4474,PAYLOAD,2024-03-31 10:52:46,15.08825309,0.0001734,53.2206,3.5163,69.2588,290.859,7.7931e-05,9.52e-06,0.0,0 STARLINK-4474,1 53547U 22101W   24091.45331570  .00000952  00000-0  77931-4 0  9991,2 53547  53.2206   3.5163 0001734  69.2588 290.8590 15.08825309 89387,6917.925,95.438,540.99,538.591,0.0
53547.0,STARLINK-4474,PAYLOAD,2024-03-31 22:00:29,15.08822159,0.0001296,53.2197,1.4359,80.2542,279.8596,-5.4623e-05,-1.157e-05,0.0,0 STARLINK-4474,1 53547U 22101W   24091.91700748 -.00001157  00000-0 -54623-4 0  9992,2 53547  53.2197   1.4359 0001296  80.2542 279.8596 15.08822159 90123,6917.935,95.439,540.696,538.903,0.0
53547.0,STARLINK-4474,PAYLOAD,2024-04-01 10:43:33,15.08835631,0.0001734,53.2194,359.0603,89.4109,270.7082,5.4712e-05,5.83e-06,0.0,0 STARLINK-4474,1 53547U 22101W   24092.44691895  .00000583  00000-0  54712-4 0  9992,2 53547  53.2194 359.0603 0001734  89.4109 270.7082 15.08835631 90209,6917.894,95.438,540.958,538.559,0.0
53547.0,STARLINK-4474,PAYLOAD,2024-04-01 17:05:05,15.08826479,0.0001477,53.2197,357.8683,88.8894,271.2268,0.00018616,2.675e-05,0.0,0 STARLINK-4474,1 53547U 22101W   24092.71186916  .00002675  00000-0  18616-3 0  9991,2 53547  53.2197 357.8683 0001477  88.8894 271.2268 15.08826479 89574,6917.922,95.438,540.808,538.765,0.0
53547.0,STARLINK-4474,PAYLOAD,2024-04-02 02:37:23,15.08839295,0.0001318,53.2193,356.082,95.5065,264.6077,0.00027752,4.131e-05,0.0,0 STARLINK-4474,1 53547U 22101W   24093.10929996  .00004131  00000-0  27752-3 0  9998,2 53547  53.2193 356.0820 0001318  95.5065 264.6077 15.08839295 89634,6917.883,95.438,540.659,538.836,0.0
53547.0,STARLINK-4474,PAYLOAD,2024-04-02 10:34:19,15.08841064,0.0001378,53.2194,354.5957,90.3505,269.7645,0.00026513,3.934e-05,0.0,0 STARLINK-4474,1 53547U 22101W   24093.44050050  .00003934  00000-0  26513-3 0  9995,2 53547  53.2194 354.5957 0001378  90.3505 269.7645 15.08841064 90352,6917.877,95.437,540.695,538.789,0.0
53547.0,STARLINK-4474,PAYLOAD,2024-04-03 00:52:49,15.08829388,0.0001447,53.2183,351.9215,92.0972,268.0186,5.1478e-05,5.31e-06,0.0,0 STARLINK-4474,1 53547U 22101W   24094.03667922  .00000531  00000-0  51478-4 0  9992,2 53547  53.2183 351.9215 0001447  92.0972 268.0186 15.08829388 89773,6917.913,95.438,540.779,538.777,0.0
53547.0,STARLINK-4474,PAYLOAD,2024-04-03 10:25:07,15.08843621,0.0001593,53.2181,350.1364,92.5769,267.5405,8.0966e-05,1.001e-05,0.0,0 STARLINK-4474,1 53547U 22101W   24094.43410996  .00001001  00000-0  80966-4 0  9990,2 53547  53.2181 350.1364 0001593  92.5769 267.5405 15.08843621 89839,6917.869,95.437,540.836,538.632,0.0
53547.0,STARLINK-4474,PAYLOAD,2024-04-03 23:08:12,15.08844625,0.0001744,53.2181,347.7573,92.5244,267.5948,4.0724e-05,3.6e-06,0.0,0 STARLINK-4474,1 53547U 22101W   24094.96402960  .00000360  00000-0  40724-4 0  9995,2 53547  53.2181 347.7573 0001744  92.5244 267.5948 15.08844625 90580,6917.866,95.437,540.938,538.525,0.0
53547.0,STARLINK-4474,PAYLOAD,2024-04-04 10:15:53,15.08854216,0.0001428,53.2189,345.6737,105.3556,254.7594,4.9296e-05,4.97e-06,0.0,0 STARLINK-4474,1 53547U 22101W   24095.42769957  .00000497  00000-0  49296-4 0  9993,2 53547  53.2189 345.6737 0001428 105.3556 254.7594 15.08854216 90655,6917.837,95.437,540.69,538.714,0.0
